COSMOS 2576             
1 59773U 24092A   26068.82603826  .00015211  00000+0  56283-3 0  9991
2 59773  97.4253 186.0053 0005946 159.7731 200.3745 15.27760963101271
STARLINK-33622          
1 63066U 25035Q   26068.56429284  .00030881  00000+0  11273-2 0  9993
2 63066  42.9986 147.5140 0001645 287.0242  73.0429 15.27571395 59716
